BATSU-CS1 (IRAZU)       
1 43468U 98067NR  20045.54819888  .00217599  30905-4  42068-3 0  9994
2 43468  51.6280 166.1977 0006239 333.4717  26.5973 15.99907029200997
CUBERRT                 
1 43546U 98067NU  20045.49626050  .00008578  00000-0  76324-4 0  9999
2 43546  51.6351 195.4668 0003402 337.5036  22.5811 15.69438862 90752
TEMPEST-D               
1 43547U 98067NV  20045.52365543  .00004174  00000-0  55629-4 0  9994
2 43547  51.6365 216.7185 0004577 311.3555  48.7044 15.60605879 90156
RAINCUBE                
1 43548U 98067NW  20045.55784984  .00015402  00000-0  13973-3 0  9993
2 43548  51.6338 203.3585 0004208 327.5434  32.5303 15.68224697 90780
HALOSAT                 
1 43549U 98067NX  20045.45361924  .00014272  00000-0  13130-3 0  9997
2 43549  51.6359 204.2075 0003985 328.9239  31.1521 15.67954309 90323
ENDUROSAT ONE           
1 43551U 98067NZ  20045.55498533  .00022965  00000-0  17772-3 0  9992
2 43551  51.6337 197.3386 0004301 338.9457  21.1363 15.71763938 90835
EQUISAT                 
1 43552U 98067PA  20045.59414908  .00015069  00000-0  13593-3 0  9995
2 43552  51.6360 202.1865 0004747 336.8696  23.2086 15.68385752 90739
AEROCUBE 12A            
1 43556U 18046C   20045.43332650  .00001556  00000-0  66210-4 0  9995
2 43556  51.6432 341.2883 0007998 208.0034 152.0517 15.29395165 88390
AEROCUBE 12B            
1 43557U 18046D   20045.27741107  .00000746  00000-0  38488-4 0  9995
2 43557  51.6439 342.4895 0007961 207.6779 152.3778 15.29177757 88314
UITMSAT-1               
1 43589U 98067PD  20045.45270942  .00021263  00000-0  18051-3 0  9995
2 43589  51.6329 202.6115 0004077 344.6417  15.4456 15.69586711 86458
MAYA-1                  
1 43590U 98067PE  20044.68179243  .00020430  00000-0  17386-3 0  9998
2 43590  51.6332 206.4724 0004132 342.1449  17.9403 15.69557161 86267
BHUTAN-1                
1 43591U 98067PF  20044.72635819  .00020800  00000-0  17634-3 0  9997
2 43591  51.6343 206.0688 0004287 342.8425  17.2427 15.69635145 86276
SIRIUSSAT-1             
1 43595U 98067PG  20045.51320549  .00016916  00000-0  15364-3 0  9991
2 43595  51.6333 205.2843 0002523 302.4405  57.6348 15.68115436 85537
SIRIUSSAT-2             
1 43596U 98067PH  20045.50337147  .00016792  00000-0  15309-3 0  9994
2 43596  51.6339 206.0314 0002965 301.1852  58.8853 15.68028406 85521
TANUSHA-3               
1 43597U 98067PJ  20045.60129973  .00028105  00000-0  20831-3 0  9999
2 43597  51.6315 199.0463 0002704 318.4597  41.6196 15.72665620 85621
SURFSAT                 
1 43614U 18070B   20045.59385289  .00001892  00000-0  49622-4 0  9991
2 43614  93.0313 103.3777 0018213  95.4544 264.8788 15.38591803 79432
CP7 (DAVE)              
1 43615U 18070C   20045.41972644  .00001859  00000-0  48941-4 0  9996
2 43615  93.0316 103.3020 0018359  95.5015 264.8333 15.38476718 79402
ELFIN-B                 
1 43616U 18070D   20045.42778471  .00002748  00000-0  69743-4 0  9991
2 43616  93.0273 103.2182 0018941  98.1066 262.2339 15.39550282 79436
ELFIN-A                 
1 43617U 18070E   20045.47384818  .00002768  00000-0  69981-4 0  9991
2 43617  93.0329 103.6459 0018267  95.0273 265.3067 15.39683716 79449
CUBEBEL-1 (BSUSAT-1)    
1 43666U 18083E   20045.53195947  .00001080  00000-0  56288-4 0  9991
2 43666  97.5006  73.1520 0016748  72.8076  81.6300 15.18013180 71811
DEBRISSAT-2             
1 43680U 98067PR  20045.56524470  .00048210  00000-0  28357-3 0  9998
2 43680  51.6349 195.0823 0002385 323.6158  36.4680 15.77724932 94406
CICERO 10               
1 43690U 18088A   20045.53944019  .00000824  00000-0  36234-4 0  9999
2 43690  85.0414 159.9540 0016538  50.8114 309.4592 15.20030024 69937
IRVINE01                
1 43693U 18088D   20045.34494428  .00001944  00000-0  82240-4 0  9997
2 43693  85.0385 159.1276 0018802  34.5103 325.7355 15.22333194 69965
PROXIMA I               
1 43694U 18088E   20045.54104369  .00000756  00000-0  31393-4 0  9995
2 43694  85.0357 158.7959 0020044  25.5699 334.6529 15.21762995 70002
PROXIMA II              
1 43696U 18088G   20045.53949251  .00000746  00000-0  30918-4 0  9994
2 43696  85.0357 158.7992 0020083  25.5156 334.7072 15.21766804 69995
FACSAT-1                
1 43721U 18096C   20045.42947682  .00001156  00000-0  46455-4 0  9995
2 43721  97.4337 119.6285 0017342 195.7604 164.3097 15.26875030 67463
CENTAURI-2              
1 43722U 18096D   20045.42808727  .00001561  00000-0  60972-4 0  9992
2 43722  97.4345 119.7967 0017405 196.0389 164.0301 15.27290212 67464
INNOSAT-2               
1 43738U 18096V   20045.52576364  .00002039  00000-0  73066-4 0  9998
2 43738  97.4355 121.3694 0023204 205.6969 154.3120 15.29692226 67580
SIRION PATHFINDER-2     
1 43759U 18099B   20045.50876127 -.00000297  00000-0 -21776-4 0  9999
2 43759  97.7193 119.2077 0013112 233.7038 126.2973 14.95227487 65401
CORVUS-BC 4             
1 43767U 18099K   20045.53773925  .00000342  00000-0  36799-4 0  9993
2 43767  97.7175 118.7799 0010610 236.3695 123.6514 14.94666031 65394
MOVE-II                 
1 43780U 18099Y   20045.26150016  .00000245  00000-0  27479-4 0  9995
2 43780  97.7192 118.8691 0012417 246.1372 113.8548 14.95274954 65352
SPACEBEE-7              
1 43816U 18099BL  20045.22595253  .00000535  00000-0  53324-4 0  9997
2 43816  97.7210 119.1479 0012313 229.2824 130.7328 14.95590242 64927
SPACEBEE-5              
1 43817U 18099BM  20045.42502267  .00001149  00000-0  10734-3 0  9992
2 43817  97.7250 119.6140 0012260 227.9216 132.0963 14.96060630 64961
SPACEBEE-6              
1 43818U 18099BN  20045.47117859  .00000646  00000-0  63091-4 0  9993
2 43818  97.7216 119.4743 0012510 228.0936 131.9219 14.95735865 65118
SHIELDS 1               
1 43850U 18104B   20045.54361534  .00000041  00000-0  00000-0 0  9991
2 43850  85.0253 257.2462 0015332 156.7790 203.4158 15.21274837 64634
STF-1                   
1 43852U 18104D   20045.54255197  .00000041  00000-0  00000+0 0  9999
2 43852  85.0317 257.6988 0014354 170.9081 189.2462 15.21018231 64619
ZACUBE-2                
1 43907U 18111AH  20045.53060301  .00000433  00000-0  20405-4 0  9999
2 43907  97.2768 308.9507 0020448 217.9234 142.0565 15.24449043 63134
LUME 1                  
1 43908U 18111AJ  20045.42104284  .00000792  00000-0  34612-4 0  9990
2 43908  97.2769 308.9418 0020230 218.1895 141.7911 15.24783648 63124
AOBA VELOX-IV           
1 43940U 19003J   20045.35819536  .00001524  00000-0  64325-4 0  9990
2 43940  97.2467 100.8101 0022570 304.7191 116.4207 15.24558895 59747
CATSAT-2                
1 44029U 98067PV  20045.55819449  .00008329  00000-0  10175-3 0  9994
2 44029  51.6378 222.2392 0003675 338.1223  21.9613 15.61386154 59147
DELPHINI                
1 44030U 98067PW  20045.50928980  .00012490  00000-0  14627-3 0  9992
2 44030  51.6349 221.8508 0003611 331.3656  28.7139 15.61951935 59116
UNITE                   
1 44031U 98067PX  20044.91900022  .00006814  00000-0  92242-4 0  9997
2 44031  51.6365 228.4426 0002668 329.2633  30.8203 15.58995385 58971
TECHEDSAT 8             
1 44032U 98067PY  20045.54145606  .00070807  00000-0  40106-3 0  9991
2 44032  51.6291 206.2264 0003522 309.2951  50.7737 15.78408242 59309
CATSAT-1                
1 44033U 98067PZ  20045.49399117  .00008509  00000-0  10382-3 0  9997
2 44033  51.6379 222.5641 0003556 335.7239  24.3586 15.61383764 59040
RAAVANA-1               
1 44329U 98067QE  20045.55269015  .00006855  00000-0  10556-3 0  9990
2 44329  51.6390 234.2059 0006109 256.0741 103.9571 15.55450310 37706
UGUISU                  
1 44330U 98067QF  20045.55969681  .00006108  00000-0  95031-4 0  9991
2 44330  51.6385 234.2506 0006095 254.5942 105.4376 15.55389630 37682
NEPALISAT-1             
1 44331U 98067QG  20045.54741261  .00006080  00000-0  94322-4 0  9994
2 44331  51.6386 234.1706 0006132 257.4833 102.5473 15.55479722 37697
SPOOQY-1                
1 44332U 98067QH  20044.96724908  .00006491  00000-0  10038-3 0  9996
2 44332  51.6385 237.0430 0004987 256.8664 103.1771 15.55438981 37560
SPACEBEE-9              
1 44370U 19037F   20045.52435475  .00005605  00000-0  13843-3 0  9992
2 44370  45.0169  87.7384 0013022 184.4478 175.6285 15.41542248 35464
SPACEBEE-8              
1 44371U 19037G   20045.54445271  .00010802  00000-0  23822-3 0  9993
2 44371  45.0178  85.3633 0010167 189.7232 170.3460 15.44079556 35488
IOD-1 GEMS              
1 44385U 98067QK  20045.53809591  .00010981  00000-0  15892-3 0  9992
2 44385  51.6397 234.1374 0002872 215.8663 144.2136 15.56447596 35169
MOVE-IIB                
1 44398U 19038N   20045.54758168  .00000745  00000-0  46847-4 0  9993
2 44398  97.5209   8.5023 0024884 190.8886 169.1809 15.12042406 33854
SONATE                  
1 44400U 19038Q   20045.55801122  .00000320  00000-0  22409-4 0  9994
2 44400  97.5235   8.5314 0024949 189.0695 171.0088 15.11829049 33856
LUCKY-7                 
1 44406U 19038W   20045.46174396  .00000416  00000-0  27829-4 0  9993
2 44406  97.5233   8.5002 0024397 189.1153 170.9638 15.12060421 33830
BEESAT 9                
1 44412U 19038AC  20045.39854914  .00000565  00000-0  36473-4 0  9993
2 44412  97.5227   8.4213 0022308 194.9668 165.0905 15.12085828 33524
JAISAT-1                
1 44419U 19038F   20045.52456010  .00000591  00000-0  37496-4 0  9995
2 44419  97.5229   8.7161 0021187 193.7718 166.2938 15.12568070 33866
SWIATOWID               
1 44426U 98067QL  20045.53995205  .00012386  00000-0  17653-3 0  9994
2 44426  51.6418 234.0667 0003948 202.7624 191.2967 15.56725332 35183
KRAKSAT                 
1 44427U 98067QM  20045.49944846  .00005270  00000-0  86749-4 0  9992
2 44427  51.6402 236.1219 0003646 205.8266 154.2543 15.54144060 35195
VCC A                   
1 44428U 98067QN  20045.49952578  .00006793  00000-0  10666-3 0  9999
2 44428  51.6400 235.3759 0002792 224.7475 135.3291 15.54930802 35206
